[{"OBJECT_NAME":"STARLINK-34424","OBJECT_ID":"2025-123E","EPOCH":"2026-03-09T22:00:01.999584","MEAN_MOTION":14.98349951,"ECCENTRICITY":0.0004039,"INCLINATION":70.0008,"RA_OF_ASC_NODE":194.059,"ARG_OF_PERICENTER":276.3711,"MEAN_ANOMALY":238.0798,"EPHEMERIS_TYPE":0,"CLASSIFICATION_TYPE":"U","NORAD_CAT_ID":64295,"ELEMENT_SET_NO":999,"REV_AT_EPOCH":556,"BSTAR":-0.002329989,"MEAN_MOTION_DOT":-0.00027801,"MEAN_MOTION_DDOT":0},{"OBJECT_NAME":"VOLGA DEB","OBJECT_ID":"2019-039F","EPOCH":"2026-03-07T20:53:51.094464","MEAN_MOTION":14.96146064,"ECCENTRICITY":0.00076084,"INCLINATION":97.5888,"RA_OF_ASC_NODE":96.0833,"ARG_OF_PERICENTER":210.1052,"MEAN_ANOMALY":149.9734,"EPHEMERIS_TYPE":0,"CLASSIFICATION_TYPE":"U","NORAD_CAT_ID":44621,"ELEMENT_SET_NO":999,"REV_AT_EPOCH":36129,"BSTAR":0.00038662057,"MEAN_MOTION_DOT":4.299e-5,"MEAN_MOTION_DDOT":0}]
